[{"OBJECT_NAME":"UNKNOWN","OBJECT_ID":"","EPOCH":"2026-01-25T14:00:46.372320","MEAN_MOTION":12.81556923,"ECCENTRICITY":0.017124,"INCLINATION":56.4355,"RA_OF_ASC_NODE":89.3404,"ARG_OF_PERICENTER":196.8273,"MEAN_ANOMALY":162.6927,"EPHEMERIS_TYPE":0,"CLASSIFICATION_TYPE":"U","NORAD_CAT_ID":81605,"ELEMENT_SET_NO":999,"REV_AT_EPOCH":19182,"BSTAR":-0.0013782,"MEAN_MOTION_DOT":-4.45e-6,"MEAN_MOTION_DDOT":0},{"OBJECT_NAME":"UNKNOWN","OBJECT_ID":"","EPOCH":"2026-01-31T23:20:10.898304","MEAN_MOTION":12.3773832,"ECCENTRICITY":0.0356167,"INCLINATION":101.8176,"RA_OF_ASC_NODE":31.2565,"ARG_OF_PERICENTER":51.176,"MEAN_ANOMALY":312.0539,"EPHEMERIS_TYPE":0,"CLASSIFICATION_TYPE":"U","NORAD_CAT_ID":81614,"ELEMENT_SET_NO":999,"REV_AT_EPOCH":54419,"BSTAR":0.032512,"MEAN_MOTION_DOT":5.205e-5,"MEAN_MOTION_DDOT":0},{"OBJECT_NAME":"UNKNOWN","OBJECT_ID":"","EPOCH":"2026-01-31T17:36:44.554464","MEAN_MOTION":13.34264637,"ECCENTRICITY":0.0768375,"INCLINATION":65.8297,"RA_OF_ASC_NODE":305.6145,"ARG_OF_PERICENTER":113.2107,"MEAN_ANOMALY":255.172,"EPHEMERIS_TYPE":0,"CLASSIFICATION_TYPE":"U","NORAD_CAT_ID":81615,"ELEMENT_SET_NO":999,"REV_AT_EPOCH":58953,"BSTAR":0.00066505,"MEAN_MOTION_DOT":1.793e-5,"MEAN_MOTION_DDOT":0},{"OBJECT_NAME":"UNKNOWN","OBJECT_ID":"","EPOCH":"2026-01-31T10:20:22.640640","MEAN_MOTION":12.57575123,"ECCENTRICITY":0.0035481,"INCLINATION":101.262,"RA_OF_ASC_NODE":208.7209,"ARG_OF_PERICENTER":148.7977,"MEAN_ANOMALY":211.5215,"EPHEMERIS_TYPE":0,"CLASSIFICATION_TYPE":"U","NORAD_CAT_ID":81617,"ELEMENT_SET_NO":999,"REV_AT_EPOCH":55935,"BSTAR":0.0022347,"MEAN_MOTION_DOT":3.34e-6,"MEAN_MOTION_DDOT":0},{"OBJECT_NAME":"UNKNOWN","OBJECT_ID":"","EPOCH":"2026-01-30T17:11:11.579136","MEAN_MOTION":14.71847598,"ECCENTRICITY":0.006638,"INCLINATION":66.9756,"RA_OF_ASC_NODE":31.524,"ARG_OF_PERICENTER":199.2619,"MEAN_ANOMALY":160.5993,"EPHEMERIS_TYPE":0,"CLASSIFICATION_TYPE":"U","NORAD_CAT_ID":81624,"ELEMENT_SET_NO":999,"REV_AT_EPOCH":64691,"BSTAR":0.00099249,"MEAN_MOTION_DOT":6.334e-5,"MEAN_MOTION_DDOT":0},{"OBJECT_NAME":"UNKNOWN","OBJECT_ID":"","EPOCH":"2026-01-31T23:20:23.360640","MEAN_MOTION":12.57253251,"ECCENTRICITY":0.0977238,"INCLINATION":65.8268,"RA_OF_ASC_NODE":29.2337,"ARG_OF_PERICENTER":57.1537,"MEAN_ANOMALY":311.975,"EPHEMERIS_TYPE":0,"CLASSIFICATION_TYPE":"U","NORAD_CAT_ID":81640,"ELEMENT_SET_NO":999,"REV_AT_EPOCH":51639,"BSTAR":0.00035019,"MEAN_MOTION_DOT":3.22e-6,"MEAN_MOTION_DDOT":0},{"OBJECT_NAME":"UNKNOWN","OBJECT_ID":"","EPOCH":"2026-01-30T05:11:24.140832","MEAN_MOTION":13.4446645,"ECCENTRICITY":0.0365005,"INCLINATION":102.1479,"RA_OF_ASC_NODE":293.7657,"ARG_OF_PERICENTER":251.669,"MEAN_ANOMALY":267.6378,"EPHEMERIS_TYPE":0,"CLASSIFICATION_TYPE":"U","NORAD_CAT_ID":81652,"ELEMENT_SET_NO":999,"REV_AT_EPOCH":58516,"BSTAR":0.00086516,"MEAN_MOTION_DOT":6.9e-6,"MEAN_MOTION_DDOT":0},{"OBJECT_NAME":"UNKNOWN","OBJECT_ID":"","EPOCH":"2026-02-01T03:47:39.149664","MEAN_MOTION":14.48330219,"ECCENTRICITY":0.0016657,"INCLINATION":74.0414,"RA_OF_ASC_NODE":302.1885,"ARG_OF_PERICENTER":225.025,"MEAN_ANOMALY":134.956,"EPHEMERIS_TYPE":0,"CLASSIFICATION_TYPE":"U","NORAD_CAT_ID":81667,"ELEMENT_SET_NO":999,"REV_AT_EPOCH":46394,"BSTAR":0.00065613,"MEAN_MOTION_DOT":2.431e-5,"MEAN_MOTION_DDOT":0},{"OBJECT_NAME":"UNKNOWN","OBJECT_ID":"","EPOCH":"2026-01-31T20:19:28.056864","MEAN_MOTION":14.10056212,"ECCENTRICITY":0.002711,"INCLINATION":66.8207,"RA_OF_ASC_NODE":238.0851,"ARG_OF_PERICENTER":198.7672,"MEAN_ANOMALY":183.1177,"EPHEMERIS_TYPE":0,"CLASSIFICATION_TYPE":"U","NORAD_CAT_ID":81674,"ELEMENT_SET_NO":999,"REV_AT_EPOCH":62078,"BSTAR":0.00051058,"MEAN_MOTION_DOT":8.25e-6,"MEAN_MOTION_DDOT":0},{"OBJECT_NAME":"UNKNOWN","OBJECT_ID":"","EPOCH":"2026-02-01T13:06:46.173600","MEAN_MOTION":14.57766289,"ECCENTRICITY":0.0023571,"INCLINATION":81.2141,"RA_OF_ASC_NODE":241.7779,"ARG_OF_PERICENTER":140.8093,"MEAN_ANOMALY":219.4817,"EPHEMERIS_TYPE":0,"CLASSIFICATION_TYPE":"U","NORAD_CAT_ID":81683,"ELEMENT_SET_NO":999,"REV_AT_EPOCH":64326,"BSTAR":0.00061601,"MEAN_MOTION_DOT":2.84e-5,"MEAN_MOTION_DDOT":0},{"OBJECT_NAME":"UNKNOWN","OBJECT_ID":"","EPOCH":"2026-01-31T09:36:05.452704","MEAN_MOTION":12.25962877,"ECCENTRICITY":0.0365135,"INCLINATION":101.0972,"RA_OF_ASC_NODE":92.3869,"ARG_OF_PERICENTER":348.9599,"MEAN_ANOMALY":10.3608,"EPHEMERIS_TYPE":0,"CLASSIFICATION_TYPE":"U","NORAD_CAT_ID":81693,"ELEMENT_SET_NO":999,"REV_AT_EPOCH":97385,"BSTAR":0.0074459,"MEAN_MOTION_DOT":9.94e-6,"MEAN_MOTION_DDOT":0},{"OBJECT_NAME":"UNKNOWN","OBJECT_ID":"","EPOCH":"2026-01-29T08:29:26.920320","MEAN_MOTION":14.40628404,"ECCENTRICITY":0.000442,"INCLINATION":71.001,"RA_OF_ASC_NODE":283.2815,"ARG_OF_PERICENTER":172.7307,"MEAN_ANOMALY":187.3894,"EPHEMERIS_TYPE":0,"CLASSIFICATION_TYPE":"U","NORAD_CAT_ID":81745,"ELEMENT_SET_NO":999,"REV_AT_EPOCH":63660,"BSTAR":0.00094324,"MEAN_MOTION_DOT":2.962e-5,"MEAN_MOTION_DDOT":0},{"OBJECT_NAME":"UNKNOWN","OBJECT_ID":"","EPOCH":"2026-02-01T03:18:15.778368","MEAN_MOTION":14.41696174,"ECCENTRICITY":0.0015782,"INCLINATION":82.9211,"RA_OF_ASC_NODE":182.4966,"ARG_OF_PERICENTER":96.7135,"MEAN_ANOMALY":263.5855,"EPHEMERIS_TYPE":0,"CLASSIFICATION_TYPE":"U","NORAD_CAT_ID":81775,"ELEMENT_SET_NO":999,"REV_AT_EPOCH":63253,"BSTAR":0.0019527,"MEAN_MOTION_DOT":6.392e-5,"MEAN_MOTION_DDOT":0},{"OBJECT_NAME":"UNKNOWN","OBJECT_ID":"","EPOCH":"2026-01-31T11:05:41.049024","MEAN_MOTION":9.34169737,"ECCENTRICITY":0.1528797,"INCLINATION":54.5026,"RA_OF_ASC_NODE":135.0102,"ARG_OF_PERICENTER":98.07,"MEAN_ANOMALY":279.5672,"EPHEMERIS_TYPE":0,"CLASSIFICATION_TYPE":"U","NORAD_CAT_ID":81779,"ELEMENT_SET_NO":999,"REV_AT_EPOCH":48496,"BSTAR":-0.44121,"MEAN_MOTION_DOT":-7.687e-5,"MEAN_MOTION_DDOT":0},{"OBJECT_NAME":"UNKNOWN","OBJECT_ID":"","EPOCH":"2026-02-01T03:42:35.315424","MEAN_MOTION":13.11209694,"ECCENTRICITY":0.0895515,"INCLINATION":65.8312,"RA_OF_ASC_NODE":342.5504,"ARG_OF_PERICENTER":260.1964,"MEAN_ANOMALY":89.6941,"EPHEMERIS_TYPE":0,"CLASSIFICATION_TYPE":"U","NORAD_CAT_ID":81792,"ELEMENT_SET_NO":999,"REV_AT_EPOCH":8664,"BSTAR":0.00060629,"MEAN_MOTION_DOT":1.669e-5,"MEAN_MOTION_DDOT":0},{"OBJECT_NAME":"UNKNOWN","OBJECT_ID":"","EPOCH":"2026-02-01T13:55:12.910656","MEAN_MOTION":12.3775889,"ECCENTRICITY":0.0235913,"INCLINATION":103.8151,"RA_OF_ASC_NODE":315.7826,"ARG_OF_PERICENTER":150.3679,"MEAN_ANOMALY":211.0979,"EPHEMERIS_TYPE":0,"CLASSIFICATION_TYPE":"U","NORAD_CAT_ID":81812,"ELEMENT_SET_NO":999,"REV_AT_EPOCH":54685,"BSTAR":0.01929,"MEAN_MOTION_DOT":2.701e-5,"MEAN_MOTION_DDOT":0},{"OBJECT_NAME":"UNKNOWN","OBJECT_ID":"","EPOCH":"2026-01-31T09:38:10.428576","MEAN_MOTION":13.89604206,"ECCENTRICITY":0.0175533,"INCLINATION":66.2381,"RA_OF_ASC_NODE":172.2961,"ARG_OF_PERICENTER":218.4519,"MEAN_ANOMALY":140.3941,"EPHEMERIS_TYPE":0,"CLASSIFICATION_TYPE":"U","NORAD_CAT_ID":81816,"ELEMENT_SET_NO":999,"REV_AT_EPOCH":61624,"BSTAR":0.001272,"MEAN_MOTION_DOT":1.684e-5,"MEAN_MOTION_DDOT":0}]
