UNKNOWN                 
1 81605U          26025.58387005 -.00000445  00000+0 -13782-2 0  9998
2 81605  56.4355  89.3404 0171240 196.8273 162.6927 12.81556923191825
UNKNOWN                 
1 81614U          26031.97234836  .00005205  00000+0  32512-1 0  9999
2 81614 101.8176  31.2565 0356167  51.1760 312.0539 12.37738320544198
UNKNOWN                 
1 81615U          26031.73384901  .00001793  00000+0  66505-3 0  9992
2 81615  65.8297 305.6145 0768375 113.2107 255.1720 13.34264637589536
UNKNOWN                 
1 81617U          26031.43081760  .00000334  00000+0  22347-2 0  9993
2 81617 101.2620 208.7209 0035481 148.7977 211.5215 12.57575123559351
UNKNOWN                 
1 81624U          26030.71610624  .00006334  00000+0  99249-3 0  9990
2 81624  66.9756  31.5240 0066380 199.2619 160.5993 14.71847598646910
UNKNOWN                 
1 81640U          26031.97249260  .00000322  00000+0  35019-3 0  9997
2 81640  65.8268  29.2337 0977238  57.1537 311.9750 12.57253251516399
UNKNOWN                 
1 81652U          26030.21625163  .00000690  00000+0  86516-3 0  9992
2 81652 102.1479 293.7657 0365005 251.6690 267.6378 13.44466450585166
UNKNOWN                 
1 81667U          26032.15809201  .00002431  00000+0  65613-3 0  9990
2 81667  74.0414 302.1885 0016657 225.0250 134.9560 14.48330219463947
UNKNOWN                 
1 81674U          26031.84685251  .00000825  00000+0  51058-3 0  9993
2 81674  66.8207 238.0851 0027110 198.7672 183.1177 14.10056212620788
UNKNOWN                 
1 81683U          26032.54636775  .00002840  00000+0  61601-3 0  9992
2 81683  81.2141 241.7779 0023571 140.8093 219.4817 14.57766289643263
UNKNOWN                 
1 81693U          26031.40006311  .00000994  00000+0  74459-2 0  9996
2 81693 101.0972  92.3869 0365135 348.9599  10.3608 12.25962877973855
UNKNOWN                 
1 81745U          26029.35378380  .00002962  00000+0  94324-3 0  9994
2 81745  71.0010 283.2815 0004420 172.7307 187.3894 14.40628404636606
UNKNOWN                 
1 81775U          26032.13768262  .00006392  00000+0  19527-2 0  9991
2 81775  82.9211 182.4966 0015782  96.7135 263.5855 14.41696174632539
UNKNOWN                 
1 81779U          26031.46228066 -.00007687  00000+0 -44121+0 0  9998
2 81779  54.5026 135.0102 1528797  98.0700 279.5672  9.34169737484969
UNKNOWN                 
1 81792U          26032.15457541  .00001669  00000+0  60629-3 0  9999
2 81792  65.8312 342.5504 0895515 260.1964  89.6941 13.11209694 86645
UNKNOWN                 
1 81812U          26032.58001054  .00002701  00000+0  19290-1 0  9997
2 81812 103.8151 315.7826 0235913 150.3679 211.0979 12.37758890546854
UNKNOWN                 
1 81816U          26031.40150959  .00001684  00000+0  12720-2 0  9991
2 81816  66.2381 172.2961 0175533 218.4519 140.3941 13.89604206616244
